[{"OBJECT_NAME":"STARLINK-4572","OBJECT_ID":"2022-105AW","EPOCH":"2026-03-09T16:09:10.695744","MEAN_MOTION":15.21020685,"ECCENTRICITY":0.00018422,"INCLINATION":97.6182,"RA_OF_ASC_NODE":315.6347,"ARG_OF_PERICENTER":18.3505,"MEAN_ANOMALY":341.7796,"EPHEMERIS_TYPE":0,"CLASSIFICATION_TYPE":"U","NORAD_CAT_ID":53692,"ELEMENT_SET_NO":999,"REV_AT_EPOCH":19355,"BSTAR":0.00056421038,"MEAN_MOTION_DOT":0.00012459,"MEAN_MOTION_DDOT":0},{"OBJECT_NAME":"STARLINK-31062","OBJECT_ID":"2023-200B","EPOCH":"2026-03-09T22:00:01.999584","MEAN_MOTION":15.1543737,"ECCENTRICITY":0.00014673,"INCLINATION":42.9995,"RA_OF_ASC_NODE":170.267,"ARG_OF_PERICENTER":276.1081,"MEAN_ANOMALY":93.2683,"EPHEMERIS_TYPE":0,"CLASSIFICATION_TYPE":"U","NORAD_CAT_ID":58590,"ELEMENT_SET_NO":999,"REV_AT_EPOCH":578,"BSTAR":0.10382483,"MEAN_MOTION_DOT":0.022068,"MEAN_MOTION_DDOT":0}]
